{"type": "FeatureCollection", "features": [ {"type": "Feature", "properties": {"norad_id": 34058, "name": "COSMOS 2251 DEB", "group": "cosmos-2251-debris", "lat": -36.997265754442175, "lon": 156.56870189407283, "alt_km": 1314.5841996968638, "timestamp": "2025-12-18T07:01:54.983145+00:00", "meta": {"OBJECT_NAME": "COSMOS 2251 DEB", "OBJECT_ID": "1993-036JV", "EPOCH": "2025-12-17T21:11:00.485664", "MEAN_MOTION": 13.5608416, "ECCENTRICITY": 0.03777269, "INCLINATION": 73.9314, "RA_OF_ASC_NODE": 169.7762, "ARG_OF_PERICENTER": 164.0372, "MEAN_ANOMALY": 313.0531, "EPHEMERIS_TYPE": 0, "CLASSIFICATION_TYPE": "U", "NORAD_CAT_ID": 34058, "ELEMENT_SET_NO": 999, "REV_AT_EPOCH": 83212, "BSTAR": 0.00061911513, "MEAN_MOTION_DOT": 6.67e-06, "MEAN_MOTION_DDOT": 0}, "tle": {"line1": "1 34058U 93036JV  25351.88264451  .00000667  00000+0  61912-3 0  9995", "line2": "2 34058  73.9314 169.7762 0377726 164.0372 313.0531 13.56084160832128"}}, "geometry": {"type": "Point", "coordinates": [156.56870189407283, -36.997265754442175]}}, {"type": "Feature", "properties": {"norad_id": 34059, "name": "COSMOS 2251 DEB", "group": "cosmos-2251-debris", "lat": -42.392576337631425, "lon": 160.65262391639158, "alt_km": 716.2283209087973, "timestamp": "2025-12-18T07:01:54.983155+00:00", "meta": {"OBJECT_NAME": "COSMOS 2251 DEB", "OBJECT_ID": "1993-036JW", "EPOCH": "2025-12-17T21:50:36.631680", "MEAN_MOTION": 14.52977074, "ECCENTRICITY": 0.00185263, "INCLINATION": 74.0365, "RA_OF_ASC_NODE": 176.5224, "ARG_OF_PERICENTER": 253.3208, "MEAN_ANOMALY": 220.2786, "EPHEMERIS_TYPE": 0, "CLASSIFICATION_TYPE": "U", "NORAD_CAT_ID": 34059, "ELEMENT_SET_NO": 999, "REV_AT_EPOCH": 88534, "BSTAR": 0.00059221634, "MEAN_MOTION_DOT": 2.42e-05, "MEAN_MOTION_DDOT": 0}, "tle": {"line1": "1 34059U 93036JW  25351.91014620  .00002420  00000+0  59222-3 0  9991", "line2": "2 34059  74.0365 176.5224 0018526 253.3208 220.2786 14.52977074885341"}}, "geometry": {"type": "Point", "coordinates": [160.65262391639158, -42.392576337631425]}}, {"type": "Feature", "properties": {"norad_id": 34061, "name": "COSMOS 2251 DEB", "group": "cosmos-2251-debris", "lat": 48.21199401672304, "lon": -88.19830194172323, "alt_km": 750.4848072616351, "timestamp": "2025-12-18T07:01:54.983165+00:00", "meta": {"OBJECT_NAME": "COSMOS 2251 DEB", "OBJECT_ID": "1993-036JY", "EPOCH": "2025-12-17T04:52:36.473952", "MEAN_MOTION": 14.40367208, "ECCENTRICITY": 0.00206736, "INCLINATION": 74.0391, "RA_OF_ASC_NODE": 255.1389, "ARG_OF_PERICENTER": 331.3493, "MEAN_ANOMALY": 190.6658, "EPHEMERIS_TYPE": 0, "CLASSIFICATION_TYPE": "U", "NORAD_CAT_ID": 34061, "ELEMENT_SET_NO": 999, "REV_AT_EPOCH": 88244, "BSTAR": 0.00027493225, "MEAN_MOTION_DOT": 8.48e-06, "MEAN_MOTION_DDOT": 0}, "tle": {"line1": "1 34061U 93036JY  25351.20319993  .00000848  00000+0  27493-3 0  9994", "line2": "2 34061  74.0391 255.1389 0020673 331.3493 190.6658 14.40367208882443"}}, "geometry": {"type": "Point", "coordinates": [-88.19830194172323, 48.21199401672304]}}, {"type": "Feature", "properties": {"norad_id": 34062, "name": "COSMOS 2251 DEB", "group": "cosmos-2251-debris", "lat": -36.90343399982977, "lon": -40.46754071946727, "alt_km": 588.4107186221136, "timestamp": "2025-12-18T07:01:54.983176+00:00", "meta": {"OBJECT_NAME": "COSMOS 2251 DEB", "OBJECT_ID": "1993-036JZ", "EPOCH": "2025-12-17T19:16:07.402944", "MEAN_MOTION": 14.78863694, "ECCENTRICITY": 0.00740187, "INCLINATION": 74.0273, "RA_OF_ASC_NODE": 128.0762, "ARG_OF_PERICENTER": 206.1338, "MEAN_ANOMALY": 283.8729, "EPHEMERIS_TYPE": 0, "CLASSIFICATION_TYPE": "U", "NORAD_CAT_ID": 34062, "ELEMENT_SET_NO": 999, "REV_AT_EPOCH": 88670, "BSTAR": 0.0020750576, "MEAN_MOTION_DOT": 0.00016006, "MEAN_MOTION_DDOT": 0}, "tle": {"line1": "1 34062U 93036JZ  25351.80286346  .00016006  00000+0  20751-2 0  9998", "line2": "2 34062  74.0273 128.0762 0074018 206.1338 283.8729 14.78863694886703"}}, "geometry": {"type": "Point", "coordinates": [-40.46754071946727, -36.90343399982977]}}, {"type": "Feature", "properties": {"norad_id": 34064, "name": "COSMOS 2251 DEB", "group": "cosmos-2251-debris", "lat": 59.89582135526801, "lon": -69.84210294837337, "alt_km": 746.7030473893301, "timestamp": "2025-12-18T07:01:54.983185+00:00", "meta": {"OBJECT_NAME": "COSMOS 2251 DEB", "OBJECT_ID": "1993-036KB", "EPOCH": "2025-12-17T19:20:25.092672", "MEAN_MOTION": 14.42355854, "ECCENTRICITY": 0.00222684, "INCLINATION": 74.0331, "RA_OF_ASC_NODE": 261.4692, "ARG_OF_PERICENTER": 327.3259, "MEAN_ANOMALY": 88.1056, "EPHEMERIS_TYPE": 0, "CLASSIFICATION_TYPE": "U", "NORAD_CAT_ID": 34064, "ELEMENT_SET_NO": 999, "REV_AT_EPOCH": 88215, "BSTAR": 0.00038847801, "MEAN_MOTION_DOT": 1.261e-05, "MEAN_MOTION_DDOT": 0}, "tle": {"line1": "1 34064U 93036KB  25351.80584598  .00001261  00000+0  38848-3 0  9994", "line2": "2 34064  74.0331 261.4692 0022268 327.3259  88.1056 14.42355854882151"}}, "geometry": {"type": "Point", "coordinates": [-69.84210294837337, 59.89582135526801]}}, {"type": "Feature", "properties": {"norad_id": 34065, "name": "COSMOS 2251 DEB", "group": "cosmos-2251-debris", "lat": -8.130991203431144, "lon": -114.45143500774383, "alt_km": 756.7466801208029, "timestamp": "2025-12-18T07:01:54.983195+00:00", "meta": {"OBJECT_NAME": "COSMOS 2251 DEB", "OBJECT_ID": "1993-036KC", "EPOCH": "2025-12-17T19:40:47.511840", "MEAN_MOTION": 14.38068116, "ECCENTRICITY": 0.00165831, "INCLINATION": 74.0354, "RA_OF_ASC_NODE": 248.7635, "ARG_OF_PERICENTER": 345.3124, "MEAN_ANOMALY": 78.547, "EPHEMERIS_TYPE": 0, "CLASSIFICATION_TYPE": "U", "NORAD_CAT_ID": 34065, "ELEMENT_SET_NO": 999, "REV_AT_EPOCH": 88278, "BSTAR": 0.00013227353, "MEAN_MOTION_DOT": 3.75e-06, "MEAN_MOTION_DDOT": 0}, "tle": {"line1": "1 34065U 93036KC  25351.81999435  .00000375  00000+0  13227-3 0  9995", "line2": "2 34065  74.0354 248.7635 0016583 345.3124  78.5470 14.38068116882785"}}, "geometry": {"type": "Point", "coordinates": [-114.45143500774383, -8.130991203431144]}}, {"type": "Feature", "properties": {"norad_id": 34070, "name": "COSMOS 2251 DEB", "group": "cosmos-2251-debris", "lat": -59.81178227128049, "lon": 75.80001862016404, "alt_km": 641.3786150821079, "timestamp": "2025-12-18T07:01:54.983205+00:00", "meta": {"OBJECT_NAME": "COSMOS 2251 DEB", "OBJECT_ID": "1993-036KH", "EPOCH": "2025-12-17T18:52:48.365760", "MEAN_MOTION": 14.77197885, "ECCENTRICITY": 0.00183795, "INCLINATION": 74.0004, "RA_OF_ASC_NODE": 106.3477, "ARG_OF_PERICENTER": 222.9852, "MEAN_ANOMALY": 261.3169, "EPHEMERIS_TYPE": 0, "CLASSIFICATION_TYPE": "U", "NORAD_CAT_ID": 34070, "ELEMENT_SET_NO": 999, "REV_AT_EPOCH": 88685, "BSTAR": 0.0018553449, "MEAN_MOTION_DOT": 0.00013168, "MEAN_MOTION_DDOT": 0}, "tle": {"line1": "1 34070U 93036KH  25351.78667090  .00013168  00000+0  18553-2 0  9996", "line2": "2 34070  74.0004 106.3477 0018379 222.9852 261.3169 14.77197885886857"}}, "geometry": {"type": "Point", "coordinates": [75.80001862016404, -59.81178227128049]}}, {"type": "Feature", "properties": {"norad_id": 34114, "name": "COSMOS 2251 DEB", "group": "cosmos-2251-debris", "lat": 74.03006779776717, "lon": 126.19899855267137, "alt_km": 682.7385163347544, "timestamp": "2025-12-18T07:01:54.983215+00:00", "meta": {"OBJECT_NAME": "COSMOS 2251 DEB", "OBJECT_ID": "1993-036KK", "EPOCH": "2025-12-17T13:03:28.863648", "MEAN_MOTION": 14.56442282, "ECCENTRICITY": 0.00476467, "INCLINATION": 74.0593, "RA_OF_ASC_NODE": 34.7285, "ARG_OF_PERICENTER": 27.5957, "MEAN_ANOMALY": 97.6086, "EPHEMERIS_TYPE": 0, "CLASSIFICATION_TYPE": "U", "NORAD_CAT_ID": 34114, "ELEMENT_SET_NO": 999, "REV_AT_EPOCH": 87871, "BSTAR": 0.0011485083, "MEAN_MOTION_DOT": 5.155e-05, "MEAN_MOTION_DDOT": 0}, "tle": {"line1": "1 34114U 93036KK  25351.54408407  .00005155  00000+0  11485-2 0  9998", "line2": "2 34114  74.0593  34.7285 0047646  27.5957  97.6086 14.56442282878719"}}, "geometry": {"type": "Point", "coordinates": [126.19899855267137, 74.03006779776717]}}, {"type": "Feature", "properties": {"norad_id": 34115, "name": "COSMOS 2251 DEB", "group": "cosmos-2251-debris", "lat": -52.44832105447692, "lon": -150.9138005364149, "alt_km": 643.6185629163147, "timestamp": "2025-12-18T07:01:54.983225+00:00", "meta": {"OBJECT_NAME": "COSMOS 2251 DEB", "OBJECT_ID": "1993-036KL", "EPOCH": "2025-12-17T18:18:00.540864", "MEAN_MOTION": 14.79556772, "ECCENTRICITY": 0.00287085, "INCLINATION": 74.0065, "RA_OF_ASC_NODE": 232.038, "ARG_OF_PERICENTER": 54.0554, "MEAN_ANOMALY": 306.3278, "EPHEMERIS_TYPE": 0, "CLASSIFICATION_TYPE": "U", "NORAD_CAT_ID": 34115, "ELEMENT_SET_NO": 999, "REV_AT_EPOCH": 89486, "BSTAR": 0.00070168989, "MEAN_MOTION_DOT": 5.259e-05, "MEAN_MOTION_DDOT": 0}, "tle": {"line1": "1 34115U 93036KL  25351.76250626  .00005259  00000+0  70169-3 0  9991", "line2": "2 34115  74.0065 232.0380 0028708  54.0554 306.3278 14.79556772894861"}}, "geometry": {"type": "Point", "coordinates": [-150.9138005364149, -52.44832105447692]}}, {"type": "Feature", "properties": {"norad_id": 34116, "name": "COSMOS 2251 DEB", "group": "cosmos-2251-debris", "lat": 72.16486438282215, "lon": -70.50898172375109, "alt_km": 715.8755966316403, "timestamp": "2025-12-18T07:01:54.983235+00:00", "meta": {"OBJECT_NAME": "COSMOS 2251 DEB", "OBJECT_ID": "1993-036KM", "EPOCH": "2025-12-17T19:04:18.281856", "MEAN_MOTION": 14.5300469, "ECCENTRICITY": 0.00119167, "INCLINATION": 74.0394, "RA_OF_ASC_NODE": 173.2413, "ARG_OF_PERICENTER": 249.2338, "MEAN_ANOMALY": 123.1947, "EPHEMERIS_TYPE": 0, "CLASSIFICATION_TYPE": "U", "NORAD_CAT_ID": 34116, "ELEMENT_SET_NO": 999, "REV_AT_EPOCH": 88560, "BSTAR": 0.00057682839, "MEAN_MOTION_DOT": 2.355e-05, "MEAN_MOTION_DDOT": 0}, "tle": {"line1": "1 34116U 93036KM  25351.79465604  .00002355  00000+0  57683-3 0  9999", "line2": "2 34116  74.0394 173.2413 0011916 249.2338 123.1947 14.53004690885600"}}, "geometry": {"type": "Point", "coordinates": [-70.50898172375109, 72.16486438282215]}}]}